{
  "type": "FeatureCollection",
  "features": [
    {
      "type": "Feature",
      "properties": {
        "norad_id": 37400,
        "name": "FENGYUN 1C DEB",
        "group": "fengyun-1c-debris",
        "lat": -32.52205980533329,
        "lon": -173.76956134416886,
        "alt_km": 1325.7800304841712,
        "timestamp": "2025-12-08T19:31:49.096996+00:00",
        "meta_object_name": "FENGYUN 1C DEB",
        "meta_object_id": "1999-025EFS",
        "meta_epoch": "2025-12-07T19:03:00.391392",
        "meta_mean_motion": 13.63635765,
        "meta_eccentricity": 0.04016177,
        "meta_inclination": 98.8381,
        "meta_ra_of_asc_node": 179.6076,
        "meta_arg_of_pericenter": 149.5737,
        "meta_mean_anomaly": 212.9391,
        "meta_ephemeris_type": 0,
        "meta_classification_type": "U",
        "meta_norad_cat_id": 37400,
        "meta_element_set_no": 999,
        "meta_rev_at_epoch": 80126,
        "meta_bstar": 0.0007701665,
        "meta_mean_motion_dot": 1.017e-05,
        "meta_mean_motion_ddot": 0,
        "tle_line1": "1 37400U 99025EFS 25341.79375453  .00001017  00000+0  77017-3 0  9990",
        "tle_line2": "2 37400  98.8381 179.6076 0401617 149.5737 212.9391 13.63635765801263"
      },
      "geometry": {
        "type": "Point",
        "coordinates": [
          -173.76956134416886,
          -32.52205980533329
        ]
      }
    },
    {
      "type": "Feature",
      "properties": {
        "norad_id": 37404,
        "name": "FENGYUN 1C DEB",
        "group": "fengyun-1c-debris",
        "lat": -34.47100331562371,
        "lon": 159.90225781539098,
        "alt_km": 768.4749823494622,
        "timestamp": "2025-12-08T19:31:49.097005+00:00",
        "meta_object_name": "FENGYUN 1C DEB",
        "meta_object_id": "1999-025EFW",
        "meta_epoch": "2025-12-07T11:23:41.900064",
        "meta_mean_motion": 14.31615665,
        "meta_eccentricity": 0.00442798,
        "meta_inclination": 98.4516,
        "meta_ra_of_asc_node": 344.4576,
        "meta_arg_of_pericenter": 177.8114,
        "meta_mean_anomaly": 339.7825,
        "meta_ephemeris_type": 0,
        "meta_classification_type": "U",
        "meta_norad_cat_id": 37404,
        "meta_element_set_no": 999,
        "meta_rev_at_epoch": 82665,
        "meta_bstar": 0.001128503,
        "meta_mean_motion_dot": 2.996e-05,
        "meta_mean_motion_ddot": 0,
        "tle_line1": "1 37404U 99025EFW 25341.47479051  .00002996  00000+0  11285-2 0  9999",
        "tle_line2": "2 37404  98.4516 344.4576 0044279 177.8114 339.7825 14.31615665826653"
      },
      "geometry": {
        "type": "Point",
        "coordinates": [
          159.90225781539098,
          -34.47100331562371
        ]
      }
    },
    {
      "type": "Feature",
      "properties": {
        "norad_id": 37406,
        "name": "FENGYUN 1C DEB",
        "group": "fengyun-1c-debris",
        "lat": 20.43757033727977,
        "lon": 38.397776676950386,
        "alt_km": 929.5901847501436,
        "timestamp": "2025-12-08T19:31:49.097014+00:00",
        "meta_object_name": "FENGYUN 1C DEB",
        "meta_object_id": "1999-025EFY",
        "meta_epoch": "2025-12-07T22:18:52.978176",
        "meta_mean_motion": 14.04264234,
        "meta_eccentricity": 0.01499828,
        "meta_inclination": 98.443,
        "meta_ra_of_asc_node": 214.4028,
        "meta_arg_of_pericenter": 280.1932,
        "meta_mean_anomaly": 94.197,
        "meta_ephemeris_type": 0,
        "meta_classification_type": "U",
        "meta_norad_cat_id": 37406,
        "meta_element_set_no": 999,
        "meta_rev_at_epoch": 63165,
        "meta_bstar": 0.0018233917,
        "meta_mean_motion_dot": 3.161e-05,
        "meta_mean_motion_ddot": 0,
        "tle_line1": "1 37406U 99025EFY 25341.92977984  .00003161  00000+0  18234-2 0  9995",
        "tle_line2": "2 37406  98.4430 214.4028 0149982 280.1932  94.1970 14.04264234631650"
      },
      "geometry": {
        "type": "Point",
        "coordinates": [
          38.397776676950386,
          20.43757033727977
        ]
      }
    },
    {
      "type": "Feature",
      "properties": {
        "norad_id": 37415,
        "name": "FENGYUN 1C DEB",
        "group": "fengyun-1c-debris",
        "lat": 10.23363960763672,
        "lon": -87.34834342443253,
        "alt_km": 869.4468419022642,
        "timestamp": "2025-12-08T19:31:49.097024+00:00",
        "meta_object_name": "FENGYUN 1C DEB",
        "meta_object_id": "1999-025EGH",
        "meta_epoch": "2025-12-08T00:55:29.042976",
        "meta_mean_motion": 13.52084178,
        "meta_eccentricity": 0.02850172,
        "meta_inclination": 98.9818,
        "meta_ra_of_asc_node": 90.3128,
        "meta_arg_of_pericenter": 194.2538,
        "meta_mean_anomaly": 165.0434,
        "meta_ephemeris_type": 0,
        "meta_classification_type": "U",
        "meta_norad_cat_id": 37415,
        "meta_element_set_no": 999,
        "meta_rev_at_epoch": 62258,
        "meta_bstar": 0.00076599629,
        "meta_mean_motion_dot": 6.11e-06,
        "meta_mean_motion_ddot": 0,
        "tle_line1": "1 37415U 99025EGH 25342.03853059  .00000611  00000+0  76600-3 0  9993",
        "tle_line2": "2 37415  98.9818  90.3128 0285017 194.2538 165.0434 13.52084178622588"
      },
      "geometry": {
        "type": "Point",
        "coordinates": [
          -87.34834342443253,
          10.23363960763672
        ]
      }
    },
    {
      "type": "Feature",
      "properties": {
        "norad_id": 37417,
        "name": "FENGYUN 1C DEB",
        "group": "fengyun-1c-debris",
        "lat": -69.98127091662975,
        "lon": 130.56252529268934,
        "alt_km": 822.2694722644692,
        "timestamp": "2025-12-08T19:31:49.097033+00:00",
        "meta_object_name": "FENGYUN 1C DEB",
        "meta_object_id": "1999-025EGK",
        "meta_epoch": "2025-12-07T06:30:00.629568",
        "meta_mean_motion": 14.07380066,
        "meta_eccentricity": 0.00782242,
        "meta_inclination": 98.7964,
        "meta_ra_of_asc_node": 334.2107,
        "meta_arg_of_pericenter": 276.2736,
        "meta_mean_anomaly": 82.9527,
        "meta_ephemeris_type": 0,
        "meta_classification_type": "U",
        "meta_norad_cat_id": 37417,
        "meta_element_set_no": 999,
        "meta_rev_at_epoch": 68273,
        "meta_bstar": 0.00064539005,
        "meta_mean_motion_dot": 1.072e-05,
        "meta_mean_motion_ddot": 0,
        "tle_line1": "1 37417U 99025EGK 25341.27084062  .00001072  00000+0  64539-3 0  9990",
        "tle_line2": "2 37417  98.7964 334.2107 0078224 276.2736  82.9527 14.07380066682737"
      },
      "geometry": {
        "type": "Point",
        "coordinates": [
          130.56252529268934,
          -69.98127091662975
        ]
      }
    },
    {
      "type": "Feature",
      "properties": {
        "norad_id": 37418,
        "name": "FENGYUN 1C DEB",
        "group": "fengyun-1c-debris",
        "lat": -2.9212617817826643,
        "lon": 55.84537566312071,
        "alt_km": 2382.537744483733,
        "timestamp": "2025-12-08T19:31:49.097042+00:00",
        "meta_object_name": "FENGYUN 1C DEB",
        "meta_object_id": "1999-025EGL",
        "meta_epoch": "2025-12-06T16:12:36.074592",
        "meta_mean_motion": 11.95112147,
        "meta_eccentricity": 0.10777154,
        "meta_inclination": 98.6124,
        "meta_ra_of_asc_node": 234.8635,
        "meta_arg_of_pericenter": 331.8071,
        "meta_mean_anomaly": 22.8442,
        "meta_ephemeris_type": 0,
        "meta_classification_type": "U",
        "meta_norad_cat_id": 37418,
        "meta_element_set_no": 999,
        "meta_rev_at_epoch": 49412,
        "meta_bstar": 0.0048233577,
        "meta_mean_motion_dot": 1.984e-05,
        "meta_mean_motion_ddot": 0,
        "tle_line1": "1 37418U 99025EGL 25340.67541753  .00001984  00000+0  48234-2 0  9994",
        "tle_line2": "2 37418  98.6124 234.8635 1077715 331.8071  22.8442 11.95112147494121"
      },
      "geometry": {
        "type": "Point",
        "coordinates": [
          55.84537566312071,
          -2.9212617817826643
        ]
      }
    },
    {
      "type": "Feature",
      "properties": {
        "norad_id": 37420,
        "name": "FENGYUN 1C DEB",
        "group": "fengyun-1c-debris",
        "lat": -56.259367978895625,
        "lon": 139.42260783587895,
        "alt_km": 868.3489114476297,
        "timestamp": "2025-12-08T19:31:49.097051+00:00",
        "meta_object_name": "FENGYUN 1C DEB",
        "meta_object_id": "1999-025EGN",
        "meta_epoch": "2025-12-08T04:40:09.470784",
        "meta_mean_motion": 13.9973792,
        "meta_eccentricity": 0.00707955,
        "meta_inclination": 98.8619,
        "meta_ra_of_asc_node": 332.3305,
        "meta_arg_of_pericenter": 288.8881,
        "meta_mean_anomaly": 70.4618,
        "meta_ephemeris_type": 0,
        "meta_classification_type": "U",
        "meta_norad_cat_id": 37420,
        "meta_element_set_no": 999,
        "meta_rev_at_epoch": 59701,
        "meta_bstar": 0.00086941135,
        "meta_mean_motion_dot": 1.257e-05,
        "meta_mean_motion_ddot": 0,
        "tle_line1": "1 37420U 99025EGN 25342.19455406  .00001257  00000+0  86941-3 0  9996",
        "tle_line2": "2 37420  98.8619 332.3305 0070795 288.8881  70.4618 13.99737920597017"
      },
      "geometry": {
        "type": "Point",
        "coordinates": [
          139.42260783587895,
          -56.259367978895625
        ]
      }
    }
  ]
}